[{"OBJECT_NAME":"ONEWEB-0502","OBJECT_ID":"2022-138H","EPOCH":"2026-03-09T23:36:22.107744","MEAN_MOTION":13.19722538,"ECCENTRICITY":0.00017304,"INCLINATION":87.9238,"RA_OF_ASC_NODE":324.7142,"ARG_OF_PERICENTER":94.9524,"MEAN_ANOMALY":265.1807,"EPHEMERIS_TYPE":0,"CLASSIFICATION_TYPE":"U","NORAD_CAT_ID":54120,"ELEMENT_SET_NO":999,"REV_AT_EPOCH":16374,"BSTAR":0.00035776674,"MEAN_MOTION_DOT":1.56e-6,"MEAN_MOTION_DDOT":0},{"OBJECT_NAME":"DELTA 1 DEB","OBJECT_ID":"1975-052EG","EPOCH":"2026-03-09T23:45:13.054752","MEAN_MOTION":13.18241661,"ECCENTRICITY":0.01300836,"INCLINATION":99.6695,"RA_OF_ASC_NODE":130.2751,"ARG_OF_PERICENTER":41.2772,"MEAN_ANOMALY":79.7789,"EPHEMERIS_TYPE":0,"CLASSIFICATION_TYPE":"U","NORAD_CAT_ID":21448,"ELEMENT_SET_NO":999,"REV_AT_EPOCH":67646,"BSTAR":0.00011661981,"MEAN_MOTION_DOT":9.0e-8,"MEAN_MOTION_DDOT":0}]
